BEIDOU-3 M15            
1 43648U 18078B   25334.47811139 -.00000053  00000+0  00000+0 0  9997
2 43648  54.2691 306.9510 0003563  16.9664 343.0409  1.86232024 48471
BEIDOU-3 G1             
1 43683U 18085A   25332.60697203 -.00000257  00000+0  00000+0 0  9997
2 43683   2.5692 103.4187 0001615  56.2445 266.5866  1.00265618 26043
BEIDOU-3 M17            
1 43706U 18093A   25334.22499150  .00000111  00000+0  00000+0 0  9991
2 43706  54.1727 189.0472 0006375 306.0351 138.1008  1.86228182 47839
BEIDOU-3 M18            
1 43707U 18093B   25333.96094346  .00000109  00000+0  00000+0 0  9997
2 43707  54.1734 189.0480 0006378 350.6014   9.4764  1.86226450 47825
BEIDOU-3 IGSO-1         
1 44204U 19023A   25323.59378135 -.00000226  00000+0  00000+0 0  9994
2 44204  58.4003  39.8168 0026966 221.2202 126.9723  1.00252177  5102
BEIDOU-2 G8             
1 44231U 19027A   25334.81943920 -.00000225  00000+0  00000+0 0  9994
2 44231   1.6290  74.6865 0008131 255.5094 179.3301  1.00271144 24092
BEIDOU-3 IGSO-2         
1 44337U 19035A   25332.72947645 -.00000040  00000+0  00000+0 0  9991
2 44337  55.2218 160.6256 0037597 202.0980  87.3007  1.00275421 23657
BEIDOU-3 M24            
1 44542U 19061A   25334.03217569  .00000109  00000+0  00000+0 0  9994
2 44542  54.4002 189.4453 0009554  23.3497 336.7840  1.86229277 42080
